ATLAS CENTAUR 2         
1 00694U 63047A   25330.67021118  .00004357  00000+0  52115-3 0  9993
2 00694  30.3586  51.2033 0549616 252.6542 101.3239 14.11618609117057
THOR AGENA D R/B        
1 00733U 64002A   25330.60391514  .00000301  00000+0  12485-3 0  9993
2 00733  99.1220 333.3500 0032588 197.0363 162.9728 14.33945454223521
SL-3 R/B                
1 00877U 64053B   25330.28390581  .00000573  00000+0  13607-3 0  9993
2 00877  65.0771 274.3677 0072399 325.8730  33.7725 14.61249883251689
SL-8 R/B                
1 02802U 67045B   25330.73664973  .00000325  00000+0  97724-4 0  9994
2 02802  74.0096 180.3446 0065017 213.2775 146.4288 14.45517096 74143
SL-8 R/B                
1 03230U 68040B   25330.65953786  .00003461  00000+0  26301-3 0  9996
2 03230  74.0295 164.0741 0024358   9.7869 350.3788 15.02366395 74534
OAO 2                   
1 03597U 68110A   25330.71299108  .00000307  00000+0  88061-4 0  9996
2 03597  34.9919 120.1299 0004860  90.6626 269.4621 14.47228358  4178
ISIS 1                  
1 03669U 69009A   25330.50883512  .00000193  00000+0  14094-3 0  9996
2 03669  88.4494 166.5717 1707023 297.5048  46.2736 11.30344769336874
SERT 2                  
1 04327U 70009A   25330.75387325  .00000056  00000+0  13246-3 0  9994
2 04327  99.2626 274.5484 0005739  70.0881 350.2964 13.58714637765916
SL-3 R/B                
1 05118U 71028B   25330.83375744  .00030508  00000+0  47835-3 0  9992
2 05118  81.2382 178.2734 0019942 298.6901  61.2343 15.53304178972669
ASTEX 1                 
1 05560U 71089A   25330.42563303  .00000671  00000+0  17098-3 0  9991
2 05560  92.7129 118.3420 0017803  75.7990 284.5192 14.50612295847334
SL-8 R/B                
1 05730U 71119B   25330.51905583  .00009645  00000+0  50803-3 0  9995
2 05730  73.8888   8.2084 0560565 355.7522   3.8965 14.35257313640675
OAO 3 (COPERNICUS)      
1 06153U 72065A   25330.28304090  .00000411  00000+0  88838-4 0  9998
2 06153  35.0040 166.4126 0006275  28.6998 137.4965 14.59884578831070
