CCSDS_OMM_VERS = 2.0
CREATION_DATE  = 
ORIGINATOR     = 

OBJECT_NAME    = ATLAS CENTAUR 2
OBJECT_ID      = 1963-047A
CENTER_NAME    = EARTH
REF_FRAME      = TEME
TIME_SYSTEM    = UTC
MEAN_ELEMENT_THEORY = SGP/SGP4

EPOCH          = 2025-11-26T16:05:06.245952
MEAN_MOTION    = 14.11618609
ECCENTRICITY   = .0549616
INCLINATION    = 30.3586
RA_OF_ASC_NODE = 51.2033
ARG_OF_PERICENTER = 252.6542
MEAN_ANOMALY   = 101.3239

EPHEMERIS_TYPE = 0
CLASSIFICATION_TYPE = U
NORAD_CAT_ID   = 694
ELEMENT_SET_NO = 999
REV_AT_EPOCH   = 11705
BSTAR          = .52115E-3
MEAN_MOTION_DOT = .4357E-4
MEAN_MOTION_DDOT = 0

CCSDS_OMM_VERS = 2.0
CREATION_DATE  = 
ORIGINATOR     = 

OBJECT_NAME    = THOR AGENA D R/B
OBJECT_ID      = 1964-002A
CENTER_NAME    = EARTH
REF_FRAME      = TEME
TIME_SYSTEM    = UTC
MEAN_ELEMENT_THEORY = SGP/SGP4

EPOCH          = 2025-11-26T14:29:38.268096
MEAN_MOTION    = 14.33945454
ECCENTRICITY   = .0032588
INCLINATION    = 99.1220
RA_OF_ASC_NODE = 333.3500
ARG_OF_PERICENTER = 197.0363
MEAN_ANOMALY   = 162.9728

EPHEMERIS_TYPE = 0
CLASSIFICATION_TYPE = U
NORAD_CAT_ID   = 733
ELEMENT_SET_NO = 999
REV_AT_EPOCH   = 22352
BSTAR          = .12485E-3
MEAN_MOTION_DOT = .301E-5
MEAN_MOTION_DDOT = 0

CCSDS_OMM_VERS = 2.0
CREATION_DATE  = 
ORIGINATOR     = 

OBJECT_NAME    = SL-3 R/B
OBJECT_ID      = 1964-053B
CENTER_NAME    = EARTH
REF_FRAME      = TEME
TIME_SYSTEM    = UTC
MEAN_ELEMENT_THEORY = SGP/SGP4

EPOCH          = 2025-11-26T06:48:49.461984
MEAN_MOTION    = 14.61249883
ECCENTRICITY   = .00723999
INCLINATION    = 65.0771
RA_OF_ASC_NODE = 274.3677
ARG_OF_PERICENTER = 325.8730
MEAN_ANOMALY   = 33.7725

EPHEMERIS_TYPE = 0
CLASSIFICATION_TYPE = U
NORAD_CAT_ID   = 877
ELEMENT_SET_NO = 999
REV_AT_EPOCH   = 25168
BSTAR          = .13606851E-3
MEAN_MOTION_DOT = .573E-5
MEAN_MOTION_DDOT = 0

CCSDS_OMM_VERS = 2.0
CREATION_DATE  = 
ORIGINATOR     = 

OBJECT_NAME    = SL-8 R/B
OBJECT_ID      = 1967-045B
CENTER_NAME    = EARTH
REF_FRAME      = TEME
TIME_SYSTEM    = UTC
MEAN_ELEMENT_THEORY = SGP/SGP4

EPOCH          = 2025-11-26T17:40:46.536672
MEAN_MOTION    = 14.45517096
ECCENTRICITY   = .0065017
INCLINATION    = 74.0096
RA_OF_ASC_NODE = 180.3446
ARG_OF_PERICENTER = 213.2775
MEAN_ANOMALY   = 146.4288

EPHEMERIS_TYPE = 0
CLASSIFICATION_TYPE = U
NORAD_CAT_ID   = 2802
ELEMENT_SET_NO = 999
REV_AT_EPOCH   = 7414
BSTAR          = .97724E-4
MEAN_MOTION_DOT = .325E-5
MEAN_MOTION_DDOT = 0

CCSDS_OMM_VERS = 2.0
CREATION_DATE  = 
ORIGINATOR     = 

OBJECT_NAME    = SL-8 R/B
OBJECT_ID      = 1968-040B
CENTER_NAME    = EARTH
REF_FRAME      = TEME
TIME_SYSTEM    = UTC
MEAN_ELEMENT_THEORY = SGP/SGP4

EPOCH          = 2025-11-26T15:49:44.071104
MEAN_MOTION    = 15.02366395
ECCENTRICITY   = .0024358
INCLINATION    = 74.0295
RA_OF_ASC_NODE = 164.0741
ARG_OF_PERICENTER = 9.7869
MEAN_ANOMALY   = 350.3788

EPHEMERIS_TYPE = 0
CLASSIFICATION_TYPE = U
NORAD_CAT_ID   = 3230
ELEMENT_SET_NO = 999
REV_AT_EPOCH   = 7453
BSTAR          = .26301E-3
MEAN_MOTION_DOT = .3461E-4
MEAN_MOTION_DDOT = 0

CCSDS_OMM_VERS = 2.0
CREATION_DATE  = 
ORIGINATOR     = 

OBJECT_NAME    = OAO 2
OBJECT_ID      = 1968-110A
CENTER_NAME    = EARTH
REF_FRAME      = TEME
TIME_SYSTEM    = UTC
MEAN_ELEMENT_THEORY = SGP/SGP4

EPOCH          = 2025-11-26T17:06:42.429312
MEAN_MOTION    = 14.47228358
ECCENTRICITY   = .000486
INCLINATION    = 34.9919
RA_OF_ASC_NODE = 120.1299
ARG_OF_PERICENTER = 90.6626
MEAN_ANOMALY   = 269.4621

EPHEMERIS_TYPE = 0
CLASSIFICATION_TYPE = U
NORAD_CAT_ID   = 3597
ELEMENT_SET_NO = 999
REV_AT_EPOCH   = 417
BSTAR          = .88061E-4
MEAN_MOTION_DOT = .307E-5
MEAN_MOTION_DDOT = 0

CCSDS_OMM_VERS = 2.0
CREATION_DATE  = 
ORIGINATOR     = 

OBJECT_NAME    = ISIS 1
OBJECT_ID      = 1969-009A
CENTER_NAME    = EARTH
REF_FRAME      = TEME
TIME_SYSTEM    = UTC
MEAN_ELEMENT_THEORY = SGP/SGP4

EPOCH          = 2025-11-26T12:12:43.354368
MEAN_MOTION    = 11.30344769
ECCENTRICITY   = .1707023
INCLINATION    = 88.4494
RA_OF_ASC_NODE = 166.5717
ARG_OF_PERICENTER = 297.5048
MEAN_ANOMALY   = 46.2736

EPHEMERIS_TYPE = 0
CLASSIFICATION_TYPE = U
NORAD_CAT_ID   = 3669
ELEMENT_SET_NO = 999
REV_AT_EPOCH   = 33687
BSTAR          = .14094E-3
MEAN_MOTION_DOT = .193E-5
MEAN_MOTION_DDOT = 0

CCSDS_OMM_VERS = 2.0
CREATION_DATE  = 
ORIGINATOR     = 

OBJECT_NAME    = SERT 2
OBJECT_ID      = 1970-009A
CENTER_NAME    = EARTH
REF_FRAME      = TEME
TIME_SYSTEM    = UTC
MEAN_ELEMENT_THEORY = SGP/SGP4

EPOCH          = 2025-11-26T18:05:34.648800
MEAN_MOTION    = 13.58714637
ECCENTRICITY   = .0005739
INCLINATION    = 99.2626
RA_OF_ASC_NODE = 274.5484
ARG_OF_PERICENTER = 70.0881
MEAN_ANOMALY   = 350.2964

EPHEMERIS_TYPE = 0
CLASSIFICATION_TYPE = U
NORAD_CAT_ID   = 4327
ELEMENT_SET_NO = 999
REV_AT_EPOCH   = 76591
BSTAR          = .13246E-3
MEAN_MOTION_DOT = .56E-6
MEAN_MOTION_DDOT = 0

CCSDS_OMM_VERS = 2.0
CREATION_DATE  = 
ORIGINATOR     = 

OBJECT_NAME    = SL-3 R/B
OBJECT_ID      = 1971-028B
CENTER_NAME    = EARTH
REF_FRAME      = TEME
TIME_SYSTEM    = UTC
MEAN_ELEMENT_THEORY = SGP/SGP4

EPOCH          = 2025-11-26T20:00:36.642816
MEAN_MOTION    = 15.53304178
ECCENTRICITY   = .0019942
INCLINATION    = 81.2382
RA_OF_ASC_NODE = 178.2734
ARG_OF_PERICENTER = 298.6901
MEAN_ANOMALY   = 61.2343

EPHEMERIS_TYPE = 0
CLASSIFICATION_TYPE = U
NORAD_CAT_ID   = 5118
ELEMENT_SET_NO = 999
REV_AT_EPOCH   = 97266
BSTAR          = .47835E-3
MEAN_MOTION_DOT = .30508E-3
MEAN_MOTION_DDOT = 0

CCSDS_OMM_VERS = 2.0
CREATION_DATE  = 
ORIGINATOR     = 

OBJECT_NAME    = ASTEX 1
OBJECT_ID      = 1971-089A
CENTER_NAME    = EARTH
REF_FRAME      = TEME
TIME_SYSTEM    = UTC
MEAN_ELEMENT_THEORY = SGP/SGP4

EPOCH          = 2025-11-26T10:12:54.693792
MEAN_MOTION    = 14.50612295
ECCENTRICITY   = .0017803
INCLINATION    = 92.7129
RA_OF_ASC_NODE = 118.3420
ARG_OF_PERICENTER = 75.7990
MEAN_ANOMALY   = 284.5192

EPHEMERIS_TYPE = 0
CLASSIFICATION_TYPE = U
NORAD_CAT_ID   = 5560
ELEMENT_SET_NO = 999
REV_AT_EPOCH   = 84733
BSTAR          = .17098E-3
MEAN_MOTION_DOT = .671E-5
MEAN_MOTION_DDOT = 0

CCSDS_OMM_VERS = 2.0
CREATION_DATE  = 
ORIGINATOR     = 

OBJECT_NAME    = SL-8 R/B
OBJECT_ID      = 1971-119B
CENTER_NAME    = EARTH
REF_FRAME      = TEME
TIME_SYSTEM    = UTC
MEAN_ELEMENT_THEORY = SGP/SGP4

EPOCH          = 2025-11-26T12:27:26.423712
MEAN_MOTION    = 14.35257313
ECCENTRICITY   = .0560565
INCLINATION    = 73.8888
RA_OF_ASC_NODE = 8.2084
ARG_OF_PERICENTER = 355.7522
MEAN_ANOMALY   = 3.8965

EPHEMERIS_TYPE = 0
CLASSIFICATION_TYPE = U
NORAD_CAT_ID   = 5730
ELEMENT_SET_NO = 999
REV_AT_EPOCH   = 64067
BSTAR          = .50803E-3
MEAN_MOTION_DOT = .9645E-4
MEAN_MOTION_DDOT = 0

CCSDS_OMM_VERS = 2.0
CREATION_DATE  = 
ORIGINATOR     = 

OBJECT_NAME    = OAO 3 (COPERNICUS)
OBJECT_ID      = 1972-065A
CENTER_NAME    = EARTH
REF_FRAME      = TEME
TIME_SYSTEM    = UTC
MEAN_ELEMENT_THEORY = SGP/SGP4

EPOCH          = 2025-11-26T06:47:34.733760
MEAN_MOTION    = 14.59884578
ECCENTRICITY   = .00062757
INCLINATION    = 35.0040
RA_OF_ASC_NODE = 166.4126
ARG_OF_PERICENTER = 28.6998
MEAN_ANOMALY   = 137.4965

EPHEMERIS_TYPE = 0
CLASSIFICATION_TYPE = U
NORAD_CAT_ID   = 6153
ELEMENT_SET_NO = 999
REV_AT_EPOCH   = 83107
BSTAR          = .88838209E-4
MEAN_MOTION_DOT = .411E-5
MEAN_MOTION_DDOT = 0

